{
  "type": "FeatureCollection",
  "features": [
    {
      "type": "Feature",
      "properties": {
        "norad_id": 37836,
        "name": "EUTELSAT 16A",
        "group": "eutelsat",
        "lat": 0.07420784038146692,
        "lon": 97.39181123453876,
        "alt_km": 35811.18207442126,
        "timestamp": "2025-12-17T23:38:06.534098+00:00",
        "meta_object_name": "EUTELSAT 16A",
        "meta_object_id": "2011-057A",
        "meta_epoch": "2025-12-17T13:24:07.108704",
        "meta_mean_motion": 1.00274512,
        "meta_eccentricity": 0.00061687,
        "meta_inclination": 0.0634,
        "meta_ra_of_asc_node": 331.0566,
        "meta_arg_of_pericenter": 298.9825,
        "meta_mean_anomaly": 33.4518,
        "meta_ephemeris_type": 0,
        "meta_classification_type": "U",
        "meta_norad_cat_id": 37836,
        "meta_element_set_no": 999,
        "meta_rev_at_epoch": 550,
        "meta_bstar": 0,
        "meta_mean_motion_dot": 1.29e-06,
        "meta_mean_motion_ddot": 0,
        "tle_line1": "1 37836U 11057A   25351.55841561  .00000129  00000+0  00000+0 0  9992",
        "tle_line2": "2 37836   0.0634 331.0566 0006168 298.9825  33.4518  1.00274512  5506"
      },
      "geometry": {
        "type": "Point",
        "coordinates": [
          97.39181123453876,
          0.07420784038146692
        ]
      }
    },
    {
      "type": "Feature",
      "properties": {
        "norad_id": 38992,
        "name": "EUTELSAT 21B",
        "group": "eutelsat",
        "lat": 0.07833091436587768,
        "lon": 102.99414524813677,
        "alt_km": 35799.960746360586,
        "timestamp": "2025-12-17T23:38:06.534110+00:00",
        "meta_object_name": "EUTELSAT 21B",
        "meta_object_id": "2012-062B",
        "meta_epoch": "2025-12-17T13:25:44.453856",
        "meta_mean_motion": 1.00274467,
        "meta_eccentricity": 0.00034983,
        "meta_inclination": 0.0722,
        "meta_ra_of_asc_node": 333.9649,
        "meta_arg_of_pericenter": 301.6563,
        "meta_mean_anomaly": 33.8749,
        "meta_ephemeris_type": 0,
        "meta_classification_type": "U",
        "meta_norad_cat_id": 38992,
        "meta_element_set_no": 999,
        "meta_rev_at_epoch": 4800,
        "meta_bstar": 0,
        "meta_mean_motion_dot": 1.55e-06,
        "meta_mean_motion_ddot": 0,
        "tle_line1": "1 38992U 12062B   25351.55954229  .00000155  00000+0  00000+0 0  9998",
        "tle_line2": "2 38992   0.0722 333.9649 0003498 301.6563  33.8749  1.00274467 48006"
      },
      "geometry": {
        "type": "Point",
        "coordinates": [
          102.99414524813677,
          0.07833091436587768
        ]
      }
    },
    {
      "type": "Feature",
      "properties": {
        "norad_id": 39020,
        "name": "EUTELSAT 70B",
        "group": "eutelsat",
        "lat": 0.033200117077992294,
        "lon": 151.81498784142693,
        "alt_km": 35789.267039319,
        "timestamp": "2025-12-17T23:38:06.534144+00:00",
        "meta_object_name": "EUTELSAT 70B",
        "meta_object_id": "2012-069A",
        "meta_epoch": "2025-12-17T13:39:43.115328",
        "meta_mean_motion": 1.0027119,
        "meta_eccentricity": 0.00043037,
        "meta_inclination": 0.0609,
        "meta_ra_of_asc_node": 357.5285,
        "meta_arg_of_pericenter": 253.7579,
        "meta_mean_anomaly": 110.5832,
        "meta_ephemeris_type": 0,
        "meta_classification_type": "U",
        "meta_norad_cat_id": 39020,
        "meta_element_set_no": 999,
        "meta_rev_at_epoch": 4768,
        "meta_bstar": 0,
        "meta_mean_motion_dot": -1.8e-07,
        "meta_mean_motion_ddot": 0,
        "tle_line1": "1 39020U 12069A   25351.56924902 -.00000018  00000+0  00000+0 0  9993",
        "tle_line2": "2 39020   0.0609 357.5285 0004303 253.7579 110.5832  1.00271190 47680"
      },
      "geometry": {
        "type": "Point",
        "coordinates": [
          151.81498784142693,
          0.033200117077992294
        ]
      }
    },
    {
      "type": "Feature",
      "properties": {
        "norad_id": 39122,
        "name": "EUTELSAT 117 WEST A",
        "group": "eutelsat",
        "lat": -0.033291616356781434,
        "lon": -35.40280942406232,
        "alt_km": 35778.951758043135,
        "timestamp": "2025-12-17T23:38:06.534160+00:00",
        "meta_object_name": "EUTELSAT 117 WEST A",
        "meta_object_id": "2013-012A",
        "meta_epoch": "2025-12-17T14:05:26.245248",
        "meta_mean_motion": 1.00272769,
        "meta_eccentricity": 0.00027231,
        "meta_inclination": 0.0259,
        "meta_ra_of_asc_node": 41.9855,
        "meta_arg_of_pericenter": 229.0714,
        "meta_mean_anomaly": 269.9656,
        "meta_ephemeris_type": 0,
        "meta_classification_type": "U",
        "meta_norad_cat_id": 39122,
        "meta_element_set_no": 999,
        "meta_rev_at_epoch": 4661,
        "meta_bstar": 0,
        "meta_mean_motion_dot": 1.2e-07,
        "meta_mean_motion_ddot": 0,
        "tle_line1": "1 39122U 13012A   25351.58710932  .00000012  00000+0  00000+0 0  9996",
        "tle_line2": "2 39122   0.0259  41.9855 0002723 229.0714 269.9656  1.00272769 46610"
      },
      "geometry": {
        "type": "Point",
        "coordinates": [
          -35.40280942406232,
          -0.033291616356781434
        ]
      }
    },
    {
      "type": "Feature",
      "properties": {
        "norad_id": 39163,
        "name": "EUTELSAT 7B",
        "group": "eutelsat",
        "lat": 0.09063253397276017,
        "lon": 88.41598726156415,
        "alt_km": 35797.54933239318,
        "timestamp": "2025-12-17T23:38:06.534172+00:00",
        "meta_object_name": "EUTELSAT 7B",
        "meta_object_id": "2013-022A",
        "meta_epoch": "2025-12-17T13:21:22.372416",
        "meta_mean_motion": 1.00270007,
        "meta_eccentricity": 0.00042526,
        "meta_inclination": 0.0652,
        "meta_ra_of_asc_node": 353.0262,
        "meta_arg_of_pericenter": 327.6164,
        "meta_mean_anomaly": 333.1437,
        "meta_ephemeris_type": 0,
        "meta_classification_type": "U",
        "meta_norad_cat_id": 39163,
        "meta_element_set_no": 999,
        "meta_rev_at_epoch": 4612,
        "meta_bstar": 0,
        "meta_mean_motion_dot": 7.3e-07,
        "meta_mean_motion_ddot": 0,
        "tle_line1": "1 39163U 13022A   25351.55650894  .00000073  00000+0  00000+0 0  9996",
        "tle_line2": "2 39163   0.0652 353.0262 0004252 327.6164 333.1437  1.00270007 46124"
      },
      "geometry": {
        "type": "Point",
        "coordinates": [
          88.41598726156415,
          0.09063253397276017
        ]
      }
    },
    {
      "type": "Feature",
      "properties": {
        "norad_id": 39612,
        "name": "EXPRESS-AT1",
        "group": "eutelsat",
        "lat": -0.0005929649008508532,
        "lon": 137.36859019804356,
        "alt_km": 35784.04184034754,
        "timestamp": "2025-12-17T23:38:06.534185+00:00",
        "meta_object_name": "EXPRESS-AT1",
        "meta_object_id": "2014-010A",
        "meta_epoch": "2025-12-17T15:18:18.673632",
        "meta_mean_motion": 1.00270736,
        "meta_eccentricity": 5.52e-05,
        "meta_inclination": 0.0117,
        "meta_ra_of_asc_node": 286.7085,
        "meta_arg_of_pericenter": 203.2276,
        "meta_mean_anomaly": 242.1533,
        "meta_ephemeris_type": 0,
        "meta_classification_type": "U",
        "meta_norad_cat_id": 39612,
        "meta_element_set_no": 999,
        "meta_rev_at_epoch": 4299,
        "meta_bstar": 0,
        "meta_mean_motion_dot": 1.04e-06,
        "meta_mean_motion_ddot": 0,
        "tle_line1": "1 39612U 14010A   25351.63771613  .00000104  00000+0  00000+0 0  9990",
        "tle_line2": "2 39612   0.0117 286.7085 0000552 203.2276 242.1533  1.00270736 42992"
      },
      "geometry": {
        "type": "Point",
        "coordinates": [
          137.36859019804356,
          -0.0005929649008508532
        ]
      }
    },
    {
      "type": "Feature",
      "properties": {
        "norad_id": 39613,
        "name": "EXPRESS-AT2",
        "group": "eutelsat",
        "lat": -0.031871781645063726,
        "lon": -138.78624209782393,
        "alt_km": 35784.14173505666,
        "timestamp": "2025-12-17T23:38:06.534197+00:00",
        "meta_object_name": "EXPRESS-AT2",
        "meta_object_id": "2014-010B",
        "meta_epoch": "2025-12-17T17:55:46.752960",
        "meta_mean_motion": 1.0027236,
        "meta_eccentricity": 0.0001011,
        "meta_inclination": 0.0165,
        "meta_ra_of_asc_node": 290.5295,
        "meta_arg_of_pericenter": 355.8411,
        "meta_mean_anomaly": 209.0485,
        "meta_ephemeris_type": 0,
        "meta_classification_type": "U",
        "meta_norad_cat_id": 39613,
        "meta_element_set_no": 999,
        "meta_rev_at_epoch": 4268,
        "meta_bstar": 0,
        "meta_mean_motion_dot": -2.56e-06,
        "meta_mean_motion_ddot": 0,
        "tle_line1": "1 39613U 14010B   25351.74706890 -.00000256  00000+0  00000+0 0  9997",
        "tle_line2": "2 39613   0.0165 290.5295 0001011 355.8411 209.0485  1.00272360 42687"
      },
      "geometry": {
        "type": "Point",
        "coordinates": [
          -138.78624209782393,
          -0.031871781645063726
        ]
      }
    }
  ]
}